[{"OBJECT_NAME":"DUPLEX","OBJECT_ID":"1998-067XS","EPOCH":"2026-03-22T00:58:43.568256","MEAN_MOTION":15.56978063,"ECCENTRICITY":0.00030958,"INCLINATION":51.6305,"RA_OF_ASC_NODE":7.6356,"ARG_OF_PERICENTER":165.608,"MEAN_ANOMALY":194.5,"EPHEMERIS_TYPE":0,"CLASSIFICATION_TYPE":"U","NORAD_CAT_ID":66906,"ELEMENT_SET_NO":999,"REV_AT_EPOCH":1705,"BSTAR":0.0004672237,"MEAN_MOTION_DOT":0.00034012,"MEAN_MOTION_DDOT":0},{"OBJECT_NAME":"ISS OBJECT XT","OBJECT_ID":"1998-067XT","EPOCH":"2026-03-22T01:09:00.897120","MEAN_MOTION":15.73470745,"ECCENTRICITY":0.00053178,"INCLINATION":51.6258,"RA_OF_ASC_NODE":2.4058,"ARG_OF_PERICENTER":159.5526,"MEAN_ANOMALY":200.5686,"EPHEMERIS_TYPE":0,"CLASSIFICATION_TYPE":"U","NORAD_CAT_ID":66907,"ELEMENT_SET_NO":999,"REV_AT_EPOCH":1712,"BSTAR":0.0014285344,"MEAN_MOTION_DOT":0.00207763,"MEAN_MOTION_DDOT":0},{"OBJECT_NAME":"ISS OBJECT XU","OBJECT_ID":"1998-067XU","EPOCH":"2026-03-22T01:04:51.210624","MEAN_MOTION":15.73628129,"ECCENTRICITY":0.00055198,"INCLINATION":51.6253,"RA_OF_ASC_NODE":2.3825,"ARG_OF_PERICENTER":158.4506,"MEAN_ANOMALY":201.6726,"EPHEMERIS_TYPE":0,"CLASSIFICATION_TYPE":"U","NORAD_CAT_ID":66908,"ELEMENT_SET_NO":999,"REV_AT_EPOCH":1712,"BSTAR":0.0014325547,"MEAN_MOTION_DOT":0.00209827,"MEAN_MOTION_DDOT":0},{"OBJECT_NAME":"SILVERSAT","OBJECT_ID":"1998-067XV","EPOCH":"2026-03-22T00:27:19.065888","MEAN_MOTION":15.77783602,"ECCENTRICITY":0.00060124,"INCLINATION":51.6232,"RA_OF_ASC_NODE":1.4518,"ARG_OF_PERICENTER":164.3213,"MEAN_ANOMALY":195.7975,"EPHEMERIS_TYPE":0,"CLASSIFICATION_TYPE":"U","NORAD_CAT_ID":66909,"ELEMENT_SET_NO":999,"REV_AT_EPOCH":1713,"BSTAR":0.0016492891,"MEAN_MOTION_DOT":0.00292872,"MEAN_MOTION_DDOT":0},{"OBJECT_NAME":"ISS OBJECT XW","OBJECT_ID":"1998-067XW","EPOCH":"2026-03-22T01:11:25.415808","MEAN_MOTION":15.72382952,"ECCENTRICITY":0.00059165,"INCLINATION":51.6254,"RA_OF_ASC_NODE":2.4094,"ARG_OF_PERICENTER":160.5806,"MEAN_ANOMALY":199.5419,"EPHEMERIS_TYPE":0,"CLASSIFICATION_TYPE":"U","NORAD_CAT_ID":66910,"ELEMENT_SET_NO":999,"REV_AT_EPOCH":1712,"BSTAR":0.0013779068,"MEAN_MOTION_DOT":0.00190918,"MEAN_MOTION_DDOT":0},{"OBJECT_NAME":"ISS OBJECT XX","OBJECT_ID":"1998-067XX","EPOCH":"2026-03-21T19:05:44.145312","MEAN_MOTION":15.82512156,"ECCENTRICITY":0.00075961,"INCLINATION":51.6202,"RA_OF_ASC_NODE":1.4317,"ARG_OF_PERICENTER":165.5607,"MEAN_ANOMALY":194.5614,"EPHEMERIS_TYPE":0,"CLASSIFICATION_TYPE":"U","NORAD_CAT_ID":66911,"ELEMENT_SET_NO":999,"REV_AT_EPOCH":1710,"BSTAR":0.002054154,"MEAN_MOTION_DOT":0.0046225,"MEAN_MOTION_DDOT":0},{"OBJECT_NAME":"ISS OBJECT XY","OBJECT_ID":"1998-067XY","EPOCH":"2026-03-21T12:34:04.346688","MEAN_MOTION":15.6595471,"ECCENTRICITY":0.0003878,"INCLINATION":51.6282,"RA_OF_ASC_NODE":7.1735,"ARG_OF_PERICENTER":158.9718,"MEAN_ANOMALY":201.1438,"EPHEMERIS_TYPE":0,"CLASSIFICATION_TYPE":"U","NORAD_CAT_ID":66912,"ELEMENT_SET_NO":999,"REV_AT_EPOCH":1700,"BSTAR":0.0012251516,"MEAN_MOTION_DOT":0.00129023,"MEAN_MOTION_DDOT":0},{"OBJECT_NAME":"KNACKSAT-2","OBJECT_ID":"1998-067XZ","EPOCH":"2026-03-22T00:33:47.312928","MEAN_MOTION":15.5281348,"ECCENTRICITY":0.00097794,"INCLINATION":51.6319,"RA_OF_ASC_NODE":10.5197,"ARG_OF_PERICENTER":229.8924,"MEAN_ANOMALY":130.121,"EPHEMERIS_TYPE":0,"CLASSIFICATION_TYPE":"U","NORAD_CAT_ID":67683,"ELEMENT_SET_NO":999,"REV_AT_EPOCH":670,"BSTAR":0.00076672661,"MEAN_MOTION_DOT":0.00048297,"MEAN_MOTION_DDOT":0},{"OBJECT_NAME":"CORAL","OBJECT_ID":"1998-067YA","EPOCH":"2026-03-22T02:25:09.700608","MEAN_MOTION":15.56342856,"ECCENTRICITY":0.00121878,"INCLINATION":51.6311,"RA_OF_ASC_NODE":9.5362,"ARG_OF_PERICENTER":219.6272,"MEAN_ANOMALY":140.383,"EPHEMERIS_TYPE":0,"CLASSIFICATION_TYPE":"U","NORAD_CAT_ID":67684,"ELEMENT_SET_NO":999,"REV_AT_EPOCH":672,"BSTAR":0.0013310514,"MEAN_MOTION_DOT":0.00096553,"MEAN_MOTION_DDOT":0},{"OBJECT_NAME":"GXIBA-1","OBJECT_ID":"1998-067YB","EPOCH":"2026-03-22T06:33:11.551104","MEAN_MOTION":15.53290377,"ECCENTRICITY":0.00116284,"INCLINATION":51.6327,"RA_OF_ASC_NODE":9.1857,"ARG_OF_PERICENTER":227.888,"MEAN_ANOMALY":132.1122,"EPHEMERIS_TYPE":0,"CLASSIFICATION_TYPE":"U","NORAD_CAT_ID":67685,"ELEMENT_SET_NO":999,"REV_AT_EPOCH":674,"BSTAR":0.00060489181,"MEAN_MOTION_DOT":0.00038654,"MEAN_MOTION_DDOT":0},{"OBJECT_NAME":"UITMSAT-2","OBJECT_ID":"1998-067YC","EPOCH":"2026-03-22T01:39:39.873600","MEAN_MOTION":15.54090854,"ECCENTRICITY":0.00087204,"INCLINATION":51.633,"RA_OF_ASC_NODE":10.077,"ARG_OF_PERICENTER":197.5309,"MEAN_ANOMALY":162.5382,"EPHEMERIS_TYPE":0,"CLASSIFICATION_TYPE":"U","NORAD_CAT_ID":67686,"ELEMENT_SET_NO":999,"REV_AT_EPOCH":671,"BSTAR":0.00097067871,"MEAN_MOTION_DOT":0.00064299,"MEAN_MOTION_DDOT":0},{"OBJECT_NAME":"HMU-SAT2","OBJECT_ID":"1998-067YD","EPOCH":"2026-03-22T02:00:47.226816","MEAN_MOTION":15.53052965,"ECCENTRICITY":0.00083352,"INCLINATION":51.6325,"RA_OF_ASC_NODE":10.1754,"ARG_OF_PERICENTER":200.1603,"MEAN_ANOMALY":159.9059,"EPHEMERIS_TYPE":0,"CLASSIFICATION_TYPE":"U","NORAD_CAT_ID":67687,"ELEMENT_SET_NO":999,"REV_AT_EPOCH":663,"BSTAR":0.00084409961,"MEAN_MOTION_DOT":0.00053693,"MEAN_MOTION_DDOT":0},{"OBJECT_NAME":"LEOPARD","OBJECT_ID":"1998-067YE","EPOCH":"2026-03-21T02:37:26.409216","MEAN_MOTION":15.5358032,"ECCENTRICITY":0.00084068,"INCLINATION":51.633,"RA_OF_ASC_NODE":14.9166,"ARG_OF_PERICENTER":194.0087,"MEAN_ANOMALY":166.0671,"EPHEMERIS_TYPE":0,"CLASSIFICATION_TYPE":"U","NORAD_CAT_ID":67688,"ELEMENT_SET_NO":999,"REV_AT_EPOCH":648,"BSTAR":0.00078511675,"MEAN_MOTION_DOT":0.00050861,"MEAN_MOTION_DDOT":0},{"OBJECT_NAME":"CREW DRAGON 12","OBJECT_ID":"2026-031A","EPOCH":"2026-03-22T03:54:40.385952","MEAN_MOTION":15.48444672,"ECCENTRICITY":0.00061864,"INCLINATION":51.6343,"RA_OF_ASC_NODE":10.6992,"ARG_OF_PERICENTER":218.8034,"MEAN_ANOMALY":141.2511,"EPHEMERIS_TYPE":0,"CLASSIFICATION_TYPE":"U","NORAD_CAT_ID":67796,"ELEMENT_SET_NO":999,"REV_AT_EPOCH":55818,"BSTAR":0.00028686415,"MEAN_MOTION_DOT":0.00015089,"MEAN_MOTION_DDOT":0},{"OBJECT_NAME":"PROGRESS-MS 33","OBJECT_ID":"2026-058A","EPOCH":"2026-03-22T19:14:04.414272","MEAN_MOTION":16.0105608,"ECCENTRICITY":0.0011697,"INCLINATION":51.6361,"RA_OF_ASC_NODE":8.2209,"ARG_OF_PERICENTER":151.7216,"MEAN_ANOMALY":208.4431,"EPHEMERIS_TYPE":0,"CLASSIFICATION_TYPE":"U","NORAD_CAT_ID":68319,"ELEMENT_SET_NO":999,"REV_AT_EPOCH":2,"BSTAR":0.00028078,"MEAN_MOTION_DOT":0.00155125,"MEAN_MOTION_DDOT":2.146e-5},{"OBJECT_NAME":"SL-4 R/B","OBJECT_ID":"2026-058B","EPOCH":"2026-03-22T19:10:47.675424","MEAN_MOTION":16.27373014,"ECCENTRICITY":0.0023871,"INCLINATION":51.6529,"RA_OF_ASC_NODE":8.2812,"ARG_OF_PERICENTER":70.6142,"MEAN_ANOMALY":289.7457,"EPHEMERIS_TYPE":0,"CLASSIFICATION_TYPE":"U","NORAD_CAT_ID":68320,"ELEMENT_SET_NO":999,"REV_AT_EPOCH":5,"BSTAR":0.00028376,"MEAN_MOTION_DOT":0.01134033,"MEAN_MOTION_DDOT":1.2081e-5}]
